ALOS-2                  
1 39766U 14029A   26195.93627313  .00000226  00000+0  37199-4 0  9996
2 39766  97.9234 292.7032 0001574  91.3724 268.7668 14.79471774655689
KAZEOSAT 2              
1 40010U 14033A   26195.98220725  .00000964  00000+0  11739-3 0  9996
2 40010  97.5393  34.1243 0007384 219.8920 140.1754 14.85502630653081
HODOYOSHI-4             
1 40011U 14033B   26195.93816131  .00001508  00000+0  16848-3 0  9995
2 40011  97.5452  19.4228 0022636 210.3327 149.6582 14.88191384652930
DEIMOS-2                
1 40013U 14033D   26195.91563270  .00000540  00000+0  56053-4 0  9996
2 40013  97.5795  69.4264 0000886 104.5217 255.6102 14.93793362641868
HODOYOSHI-3             
1 40015U 14033F   26195.39952178  .00000463  00000+0  59388-4 0  9997
2 40015  97.6444 357.3495 0031288 264.6548  95.1098 14.85436366651661
SPOT 7                  
1 40053U 14034A   26195.98789970 -.00000090  00000+0 -91568-5 0  9998
2 40053  98.0622 257.7613 0001610  94.8787 265.2598 14.60979771641192
SKYSAT-B                
1 40072U 14037D   26195.89618555  .00000603  00000+0  72253-4 0  9999
2 40072  98.3853 156.4444 0005536 173.5386 186.5901 14.88091619650087
WORLDVIEW-3 (WV-3)      
1 40115U 14048A   26195.92764886  .00000407  00000+0  53946-4 0  9992
2 40115  97.8557 270.3766 0001280 156.6966 203.4307 14.85063994646021
GAOFEN-2                
1 40118U 14049A   26195.94638713  .00000690  00000+0  96163-4 0  9999
2 40118  98.0104 260.1253 0008233 135.1225 225.0655 14.80928484643345
YAOGAN-21               
1 40143U 14053A   26195.95512789  .00003993  00000+0  15434-3 0  9997
2 40143  97.1463 235.0029 0007878   9.4100 350.7286 15.26758366659199
YAOGAN-22               
1 40275U 14063A   26195.94431677 -.00000068  00000+0 -55335-4 0  9996
2 40275 100.7762 347.6828 0006865 125.6950 234.4801 13.15531540563468
ASNARO                  
1 40298U 14070A   26195.94683312  .00003825  00000+0  18155-3 0  9994
2 40298  97.3451 271.3152 0006708  88.6586 271.5418 15.19825735648223
YAOGAN-24               
1 40310U 14072A   26195.94176328  .00000329  00000+0  55221-4 0  9997
2 40310  98.1518 333.5159 0014577 170.4368 189.7122 14.76117994627817
CBERS 4                 
1 40336U 14079A   26195.98762021 -.00000096  00000+0 -18782-4 0  9991
2 40336  98.3523 251.9447 0000823  52.0344 308.0916 14.35515336607940
YAOGAN-26               
1 40362U 14088A   26195.99590642  .00014706  00000+0  27863-3 0  9999
2 40362  97.0643 195.5749 0001943 341.4860  18.6320 15.48441246642000
SMAP                    
1 40376U 15003A   26195.90884127  .00000196  00000+0  47084-4 0  9993
2 40376  98.1284 202.6115 0001595  95.0264 265.1120 14.63389045611678
KOMPSAT-3A              
1 40536U 15014A   26195.98243912  .00019818  00000+0  27244-3 0  9998
2 40536  97.6886 189.4077 0056295  76.4001 284.3514 15.55417814626131
SENTINEL-2A             
1 40697U 15028A   26195.97693498 -.00000162  00000+0 -45264-4 0  9995
2 40697  98.5684 270.4327 0001279  94.3772 265.7557 14.30813440577705
GAOFEN-8                
1 40701U 15030A   26195.97602337  .00015751  00000+0  31375-3 0  9991
2 40701  97.6886  31.0335 0009993  96.0593 264.1795 15.46944106615742
CARBONITE 1 (CBNT-1)    
1 40718U 15032D   26195.96935920  .00000893  00000+0  11421-3 0  9998
2 40718  97.6511  12.8751 0013850 197.9258 162.1470 14.83666946593464
YAOGAN-27               
1 40878U 15040A   26196.00420948  .00000308  00000+0  92266-3 0  9996
2 40878 100.1163 181.1813 0008566 145.5253 214.6417 13.16073191521324
GAOFEN-9 01             
1 40894U 15047A   26195.99783309  .00000513  00000+0  69047-4 0  9991
2 40894  97.6265 230.4278 0028478  51.1105 309.2643 14.82934973584318
YAOGAN-28               
1 41026U 15064A   26195.96569155  .00004022  00000+0  15074-3 0  9995
2 41026  97.3109 333.6723 0012070  93.8019 266.4601 15.27758556594926
YAOGAN-29               
1 41038U 15069A   26195.97445314  .00000413  00000+0  57309-4 0  9992
2 41038  98.0020 224.6494 0000699  14.3670 345.7563 14.83106707574740
KENT RIDGE 1            
1 41167U 15077B   26195.27312472  .00002444  00000+0  68866-4 0  9991
2 41167  14.9803  64.5207 0008299 262.2466  97.6913 15.23280956585235
GAOFEN-4                
1 41194U 15083A   26194.68502446 -.00000340  00000+0  00000+0 0  9999
2 41194   0.4223  83.7871 0003940 124.9375  75.1281  1.00274923 38792
JASON-3                 
1 41240U 16002A   26195.88625412 -.00000023  00000+0  15637-3 0  9999
2 41240  66.0416  67.6019 0008184 271.0044  89.0037 12.87628621490816
SENTINEL-3A             
1 41335U 16011A   26195.91785759  .00000042  00000+0  35579-4 0  9997
2 41335  98.6238 262.9014 0001363  89.9821 270.1516 14.26739702542013
ZIYUAN 3-02 (ZY 3-02)   
1 41556U 16033A   26195.94653553  .00002995  00000+0  13615-3 0  9990
2 41556  97.3830 271.1870 0014048 185.7449 174.3628 15.21432863562205
CARTOSAT-2C             
1 41599U 16040A   26195.98704759  .00001894  00000+0  92982-4 0  9996
2 41599  97.4470 255.5800 0009594  45.5756 314.6263 15.19261153557933
