OBJECT_NAME,OBJECT_ID,EPOCH,MEAN_MOTION,ECCENTRICITY,INCLINATION,RA_OF_ASC_NODE,ARG_OF_PERICENTER,MEAN_ANOMALY,EPHEMERIS_TYPE,CLASSIFICATION_TYPE,NORAD_CAT_ID,ELEMENT_SET_NO,REV_AT_EPOCH,BSTAR,MEAN_MOTION_DOT,MEAN_MOTION_DDOT
ALOS-2,2014-029A,2026-07-14T22:28:13.998432,14.79471774,.0001574,97.9234,292.7032,91.3724,268.7668,0,U,39766,999,65568,.37199095E-4,.226E-5,0
KAZEOSAT 2,2014-033A,2026-07-14T23:34:22.706400,14.85502630,.00073845,97.5393,34.1243,219.8920,140.1754,0,U,40010,999,65308,.11739343E-3,.964E-5,0
HODOYOSHI-4,2014-033B,2026-07-14T22:30:57.137184,14.88191384,.00226363,97.5452,19.4228,210.3327,149.6582,0,U,40011,999,65293,.16847586E-3,.1508E-4,0
DEIMOS-2,2014-033D,2026-07-14T21:58:30.665280,14.93793362,.0000886,97.5795,69.4264,104.5217,255.6102,0,U,40013,999,64186,.56052928E-4,.54E-5,0
HODOYOSHI-3,2014-033F,2026-07-14T09:35:18.681792,14.85436366,.00312882,97.6444,357.3495,264.6548,95.1098,0,U,40015,999,65166,.59388268E-4,.463E-5,0
SPOT 7,2014-034A,2026-07-14T23:42:34.534080,14.60979771,.00016105,98.0622,257.7613,94.8787,265.2598,0,U,40053,999,64119,-.9156821E-5,-.9E-6,0
SKYSAT-B,2014-037D,2026-07-14T21:30:30.431520,14.88091619,.00055364,98.3853,156.4444,173.5386,186.5901,0,U,40072,999,65008,.72252759E-4,.603E-5,0
WORLDVIEW-3 (WV-3),2014-048A,2026-07-14T22:15:48.861504,14.85063994,.00012807,97.8557,270.3766,156.6966,203.4307,0,U,40115,999,64602,.53945855E-4,.407E-5,0
GAOFEN-2,2014-049A,2026-07-14T22:42:47.848032,14.80928484,.00082338,98.0104,260.1253,135.1225,225.0655,0,U,40118,999,64334,.96163326E-4,.69E-5,0
YAOGAN-21,2014-053A,2026-07-14T22:55:23.049696,15.26758366,.00078783,97.1463,235.0029,9.4100,350.7286,0,U,40143,999,65919,.15433602E-3,.3993E-4,0
YAOGAN-22,2014-063A,2026-07-14T22:39:48.968928,13.15531540,.00068653,100.7762,347.6828,125.6950,234.4801,0,U,40275,999,56346,-.55334878E-4,-.68E-6,0
ASNARO,2014-070A,2026-07-14T22:43:26.381568,15.19825735,.00067084,97.3451,271.3152,88.6586,271.5418,0,U,40298,999,64822,.18155053E-3,.3825E-4,0
YAOGAN-24,2014-072A,2026-07-14T22:36:08.347392,14.76117994,.00145772,98.1518,333.5159,170.4368,189.7122,0,U,40310,999,62781,.55221037E-4,.329E-5,0
CBERS 4,2014-079A,2026-07-14T23:42:10.386144,14.35515336,.00008235,98.3523,251.9447,52.0344,308.0916,0,U,40336,999,60794,-.18782377E-4,-.96E-6,0
YAOGAN-26,2014-088A,2026-07-14T23:54:06.314688,15.48441246,.00019435,97.0643,195.5749,341.4860,18.6320,0,U,40362,999,64200,.27863153E-3,.14706E-3,0
SMAP,2015-003A,2026-07-14T21:48:43.885728,14.63389045,.00015953,98.1284,202.6115,95.0264,265.1120,0,U,40376,999,61167,.47084207E-4,.196E-5,0
KOMPSAT-3A,2015-014A,2026-07-14T23:34:42.739968,15.55417814,.00562952,97.6886,189.4077,76.4001,284.3514,0,U,40536,999,62613,.27243906E-3,.19818E-3,0
SENTINEL-2A,2015-028A,2026-07-14T23:26:47.182272,14.30813440,.00012799,98.5684,270.4327,94.3772,265.7557,0,U,40697,999,57770,-.45263602E-4,-.162E-5,0
GAOFEN-8,2015-030A,2026-07-14T23:25:28.419168,15.46944106,.0009993,97.6886,31.0335,96.0593,264.1795,0,U,40701,999,61574,.31375096E-3,.15751E-3,0
CARBONITE 1 (CBNT-1),2015-032D,2026-07-14T23:15:52.634880,14.83666946,.001385,97.6511,12.8751,197.9258,162.1470,0,U,40718,999,59346,.11420612E-3,.893E-5,0
YAOGAN-27,2015-040A,2026-07-15T00:06:03.699072,13.16073191,.00085665,100.1163,181.1813,145.5253,214.6417,0,U,40878,999,52132,.9226624E-3,.308E-5,0
GAOFEN-9 01,2015-047A,2026-07-14T23:56:52.778976,14.82934973,.0028478,97.6265,230.4278,51.1105,309.2643,0,U,40894,999,58431,.69046521E-4,.513E-5,0
YAOGAN-28,2015-064A,2026-07-14T23:10:35.749920,15.27758556,.00120705,97.3109,333.6723,93.8019,266.4601,0,U,41026,999,59492,.1507415E-3,.4022E-4,0
YAOGAN-29,2015-069A,2026-07-14T23:23:12.751296,14.83106707,.00006993,98.0020,224.6494,14.3670,345.7563,0,U,41038,999,57474,.57308912E-4,.413E-5,0
KENT RIDGE 1,2015-077B,2026-07-14T06:33:17.975808,15.23280956,.00082992,14.9803,64.5207,262.2466,97.6913,0,U,41167,999,58523,.68866126E-4,.2444E-4,0
GAOFEN-4,2015-083A,2026-07-13T16:26:26.113344,1.00274923,.00039405,0.4223,83.7871,124.9375,75.1281,0,U,41194,999,3879,0,-.34E-5,0
JASON-3,2016-002A,2026-07-14T21:16:12.355968,12.87628621,.00081847,66.0416,67.6019,271.0044,89.0037,0,U,41240,999,49081,.15636899E-3,-.23E-6,0
SENTINEL-3A,2016-011A,2026-07-14T22:01:42.895776,14.26739702,.00013637,98.6238,262.9014,89.9821,270.1516,0,U,41335,999,54201,.35579318E-4,.42E-6,0
ZIYUAN 3-02 (ZY 3-02),2016-033A,2026-07-14T22:43:00.669792,15.21432863,.00140485,97.3830,271.1870,185.7449,174.3628,0,U,41556,999,56220,.13615184E-3,.2995E-4,0
CARTOSAT-2C,2016-040A,2026-07-14T23:41:20.911776,15.19261153,.00095948,97.4470,255.5800,45.5756,314.6263,0,U,41599,999,55793,.92981984E-4,.1894E-4,0
